     3.03           N: GNSS NAV DATA    M: MIXED            RINEX VERSION / TYPE
GR30 V4.20          ASI-egeos           20210728 235942 UTC PGM / RUN BY / DATE
GAL    5.3500D+01  3.2031D-01  1.3245D-02                   IONOSPHERIC CORR
GPSA   4.6566D-09  1.4901D-08 -5.9605D-08 -5.9605D-08       IONOSPHERIC CORR
GPSB   7.9872D+04  6.5536D+04 -6.5536D+04 -3.9322D+05       IONOSPHERIC CORR
BDSA   8.3819D-09  6.7055D-08 -4.7684D-07  7.1526D-07 W 05  IONOSPHERIC CORR
BDSA   8.3819D-09  5.9605D-08 -4.7684D-07  7.1526D-07 O 06  IONOSPHERIC CORR
BDSA   8.3819D-09  6.7055D-08 -4.7684D-07  7.1526D-07 W 07  IONOSPHERIC CORR
BDSA   7.4506D-09  7.4506D-08 -5.9605D-07  8.3447D-07 G 08  IONOSPHERIC CORR
BDSA   0.0000D+00  0.0000D+00  0.0000D+00  0.0000D+00 Q 09  IONOSPHERIC CORR
BDSA   8.3819D-09  6.7055D-08 -4.7684D-07  7.1526D-07 W 10  IONOSPHERIC CORR
BDSA   8.3819D-09  6.7055D-08 -4.7684D-07  7.1526D-07 W 11  IONOSPHERIC CORR
BDSA   8.3819D-09  5.9605D-08 -4.7684D-07  7.1526D-07 M 12  IONOSPHERIC CORR
BDSA   8.3819D-09  5.2154D-08 -4.7684D-07  7.1526D-07 K 13  IONOSPHERIC CORR
BDSA   8.3819D-09  5.9605D-08 -4.7684D-07  7.1526D-07 Q 14  IONOSPHERIC CORR
BDSA   8.3819D-09  5.9605D-08 -4.7684D-07  7.1526D-07 O 16  IONOSPHERIC CORR
BDSA   8.3819D-09  6.7055D-08 -4.7684D-07  7.1526D-07 X 19  IONOSPHERIC CORR
BDSA   8.3819D-09  6.7055D-08 -4.7684D-07  7.1526D-07 W 20  IONOSPHERIC CORR
BDSA   8.3819D-09  5.9605D-08 -4.7684D-07  7.1526D-07 O 21  IONOSPHERIC CORR
BDSA   8.3819D-09  5.9605D-08 -4.7684D-07  7.1526D-07 M 22  IONOSPHERIC CORR
BDSA   8.3819D-09  6.7055D-08 -4.7684D-07  7.1526D-07 W 23  IONOSPHERIC CORR
BDSA   8.3819D-09  6.7055D-08 -4.7684D-07  7.7486D-07 U 24  IONOSPHERIC CORR
BDSA   8.3819D-09  6.7055D-08 -4.7684D-07  7.1526D-07 W 25  IONOSPHERIC CORR
BDSA   8.3819D-09  5.9605D-08 -4.7684D-07  7.1526D-07 Q 26  IONOSPHERIC CORR
BDSA   8.3819D-09  5.9605D-08 -4.7684D-07  7.1526D-07 Q 27  IONOSPHERIC CORR
BDSA   8.3819D-09  6.7055D-08 -4.7684D-07  7.1526D-07 X 28  IONOSPHERIC CORR
BDSA   8.3819D-09  5.9605D-08 -4.7684D-07  7.1526D-07 I 29  IONOSPHERIC CORR
BDSA   8.3819D-09  5.9605D-08 -4.7684D-07  7.1526D-07 R 30  IONOSPHERIC CORR
BDSB   1.2902D+05 -2.6214D+05  2.0972D+06 -1.5073D+06 W 05  IONOSPHERIC CORR
BDSB   1.2493D+05 -1.6384D+05  1.5729D+06 -1.1141D+06 O 06  IONOSPHERIC CORR
BDSB   1.2902D+05 -2.6214D+05  2.0972D+06 -1.5073D+06 W 07  IONOSPHERIC CORR
BDSB   1.2083D+05 -2.1299D+05  2.1627D+06 -1.7039D+06 G 08  IONOSPHERIC CORR
BDSB   0.0000D+00  0.0000D+00  0.0000D+00  0.0000D+00 Q 09  IONOSPHERIC CORR
BDSB   1.2902D+05 -2.6214D+05  2.0972D+06 -1.5073D+06 W 10  IONOSPHERIC CORR
BDSB   1.2902D+05 -2.6214D+05  2.0972D+06 -1.5073D+06 W 11  IONOSPHERIC CORR
BDSB   1.2083D+05 -1.6384D+05  1.7039D+06 -1.2452D+06 M 12  IONOSPHERIC CORR
BDSB   1.1674D+05 -1.3107D+05  1.5729D+06 -1.2452D+06 K 13  IONOSPHERIC CORR
BDSB   1.2902D+05 -2.1299D+05  1.7695D+06 -1.3107D+06 Q 14  IONOSPHERIC CORR
BDSB   1.2493D+05 -1.6384D+05  1.5729D+06 -1.1141D+06 O 16  IONOSPHERIC CORR
BDSB   1.2902D+05 -2.6214D+05  2.0972D+06 -1.5073D+06 X 19  IONOSPHERIC CORR
BDSB   1.2902D+05 -2.6214D+05  2.0972D+06 -1.5073D+06 W 20  IONOSPHERIC CORR
BDSB   1.2493D+05 -1.6384D+05  1.5729D+06 -1.1141D+06 O 21  IONOSPHERIC CORR
BDSB   1.2083D+05 -1.6384D+05  1.7039D+06 -1.2452D+06 M 22  IONOSPHERIC CORR
BDSB   1.2902D+05 -2.6214D+05  2.0972D+06 -1.5073D+06 W 23  IONOSPHERIC CORR
BDSB   1.2902D+05 -2.2938D+05  1.9661D+06 -1.4418D+06 U 24  IONOSPHERIC CORR
BDSB   1.2902D+05 -2.6214D+05  2.0972D+06 -1.5073D+06 W 25  IONOSPHERIC CORR
BDSB   1.2902D+05 -2.1299D+05  1.7695D+06 -1.3107D+06 Q 26  IONOSPHERIC CORR
BDSB   1.2902D+05 -2.1299D+05  1.7695D+06 -1.3107D+06 Q 27  IONOSPHERIC CORR
BDSB   1.2902D+05 -2.6214D+05  2.0972D+06 -1.5073D+06 X 28  IONOSPHERIC CORR
BDSB   1.1878D+05 -1.4746D+05  1.8350D+06 -1.4418D+06 I 29  IONOSPHERIC CORR
BDSB   1.2902D+05 -2.1299D+05  1.7695D+06 -1.3107D+06 R 30  IONOSPHERIC CORR
GPUT -2.7939677238D-09-3.552713679D-15 503808 2168          TIME SYSTEM CORR
GLUT  4.6566128731D-10 0.000000000D+00      0    0          TIME SYSTEM CORR
GAUT  9.3132257462D-10 0.000000000D+00 259200 2168          TIME SYSTEM CORR
GPGA  4.4237822294D-09 8.881784197D-15 345600 2168          TIME SYSTEM CORR
BDUT -1.8626451492D-09-9.769962617D-15 345545  812          TIME SYSTEM CORR
    18    18  1929     7                                    LEAP SECONDS
                                                            END OF HEADER
E21 2021 07 29 18 40 00-6.790026673116D-04-2.145839061996D-12 0.000000000000D+00
     4.800000000000D+01 4.946875000000D+01 3.086557138923D-09 1.768461210936D+00
     2.348795533180D-06 1.620822586119D-04 4.937872290611D-06 5.440609428406D+03
     4.128000000000D+05-1.490116119385D-08-5.624688347075D-01 1.303851604462D-08
     9.767073575190D-01 2.405312500000D+02-2.031377907295D+00-5.733810264784D-09
     1.464346710204D-11 5.170000000000D+02 2.168000000000D+03 0.000000000000D+00
     3.120000000000D+00 0.000000000000D+00 2.328306436539D-09 2.561137080193D-09
     4.134640000000D+05
E30 2021 07 29 18 40 00 2.744480909314D-03-3.068123533012D-11 0.000000000000D+00
     4.800000000000D+01 4.437500000000D+01 3.166917629117D-09 9.585174224180D-01
     2.082437276840D-06 1.425120281056D-04 4.330649971962D-06 5.440595743179D+03
     4.128000000000D+05-3.911554813385D-08-5.578646175063D-01-1.098960638046D-07
     9.746284719308D-01 2.561875000000D+02 3.979068769557D-01-5.753096782431D-09
    -3.428714248282D-11 5.130000000000D+02 2.168000000000D+03 0.000000000000D+00
     3.120000000000D+00 0.000000000000D+00 1.862645149231D-09 1.862645149231D-09
     4.134640000000D+05
E07 2021 07 29 18 40 00-5.675086285919D-04-4.462208380573D-12 0.000000000000D+00
     4.800000000000D+01-9.046875000000D+01 3.329781555910D-09-2.917190113729D+00
    -4.392117261887D-06 3.207827685401D-04 9.195879101753D-06 5.440629610062D+03
     4.128000000000D+05 5.587935447693D-09-2.658438078891D+00-1.117587089539D-08
     9.555136215034D-01 1.390000000000D+02-7.343474879948D-01-5.669879030363D-09
    -3.535861568541D-10 5.130000000000D+02 2.168000000000D+03 0.000000000000D+00
     3.120000000000D+00 0.000000000000D+00 5.122274160385D-09 5.820766091347D-09
     4.134640000000D+05
E12 2021 07 29 18 40 00 5.086659919471D-03-1.895728019008D-11 0.000000000000D+00
     4.800000000000D+01 2.806250000000D+01 2.599751147213D-09 1.603524004457D+00
     1.443549990654D-06 3.194118617103D-04 8.128583431244D-06 5.440613922119D+03
     4.128000000000D+05-2.235174179077D-08 1.523133439044D+00-1.303851604462D-08
     9.920842167240D-01 1.815625000000D+02 7.975157683958D-01-5.389510209019D-09
     3.132273328900D-10 5.130000000000D+02 2.168000000000D+03 0.000000000000D+00
     3.120000000000D+00 0.000000000000D+00-1.047737896442D-08-1.001171767712D-08
     4.134640000000D+05
E21 2021 07 29 18 40 00-6.790023180656D-04-2.160049916711D-12 0.000000000000D+00
     4.800000000000D+01 4.946875000000D+01 3.086557138923D-09 1.768461210936D+00
     2.348795533180D-06 1.620822586119D-04 4.937872290611D-06 5.440609428406D+03
     4.128000000000D+05-1.490116119385D-08-5.624688347075D-01 1.303851604462D-08
     9.767073575190D-01 2.405312500000D+02-2.031377907295D+00-5.733810264784D-09
     1.464346710204D-11 2.580000000000D+02 2.168000000000D+03 0.000000000000D+00
     3.120000000000D+00 0.000000000000D+00 2.328306436539D-09 0.000000000000D+00
     4.135000000000D+05
E33 2021 07 29 18 40 00-4.669952322729D-04 5.258016244625D-13 0.000000000000D+00
     4.800000000000D+01 2.325000000000D+01 2.612608825644D-09 2.038216568016D+00
     1.132488250732D-06 1.000844640657D-04 8.691102266312D-06 5.440606836319D+03
     4.128000000000D+05-9.313225746155D-09 1.519829990082D+00-1.490116119385D-08
     9.952318766139D-01 1.749375000000D+02 1.148673003230D+00-5.354151593334D-09
     3.046555472693D-10 2.580000000000D+02 2.168000000000D+03 0.000000000000D+00
     3.120000000000D+00 0.000000000000D+00-3.259629011154D-09 0.000000000000D+00
     4.135000000000D+05
E12 2021 07 29 18 40 00 5.086660268717D-03-1.894306933536D-11 0.000000000000D+00
     4.800000000000D+01 2.806250000000D+01 2.599751147213D-09 1.603524004457D+00
     1.443549990654D-06 3.194118617103D-04 8.128583431244D-06 5.440613922119D+03
     4.128000000000D+05-2.235174179077D-08 1.523133439044D+00-1.303851604462D-08
     9.920842167240D-01 1.815625000000D+02 7.975157683958D-01-5.389510209019D-09
     3.132273328900D-10 2.580000000000D+02 2.168000000000D+03 0.000000000000D+00
     3.120000000000D+00 0.000000000000D+00-1.047737896442D-08 0.000000000000D+00
     4.135000000000D+05
E30 2021 07 29 18 40 00 2.744481316768D-03-3.068123533012D-11 0.000000000000D+00
     4.800000000000D+01 4.437500000000D+01 3.166917629117D-09 9.585174224180D-01
     2.082437276840D-06 1.425120281056D-04 4.330649971962D-06 5.440595743179D+03
     4.128000000000D+05-3.911554813385D-08-5.578646175063D-01-1.098960638046D-07
     9.746284719308D-01 2.561875000000D+02 3.979068769557D-01-5.753096782431D-09
    -3.428714248282D-11 2.580000000000D+02 2.168000000000D+03 0.000000000000D+00
     3.120000000000D+00 0.000000000000D+00 1.862645149231D-09 0.000000000000D+00
     4.135000000000D+05
E07 2021 07 29 18 40 00-5.675087450072D-04-4.462208380573D-12 0.000000000000D+00
     4.800000000000D+01-9.046875000000D+01 3.329781555910D-09-2.917190113729D+00
    -4.392117261887D-06 3.207827685401D-04 9.195879101753D-06 5.440629610062D+03
     4.128000000000D+05 5.587935447693D-09-2.658438078891D+00-1.117587089539D-08
     9.555136215034D-01 1.390000000000D+02-7.343474879948D-01-5.669879030363D-09
    -3.535861568541D-10 2.580000000000D+02 2.168000000000D+03 0.000000000000D+00
     3.120000000000D+00 0.000000000000D+00 5.122274160385D-09 0.000000000000D+00
     4.135000000000D+05
